FENGYUN 1C DEB          
1 31722U 99025CDV 17344.32859062  .00001868  00000-0  58056-3 0  9994
2 31722 101.9616  32.3692 0019247  90.2935 333.5251 14.42882371548905
